[{"OBJECT_NAME":"OBJECT A","OBJECT_ID":"2024-203A","EPOCH":"2026-03-09T23:31:20.812800","MEAN_MOTION":15.27300571,"ECCENTRICITY":0.00108989,"INCLINATION":97.4288,"RA_OF_ASC_NODE":139.5608,"ARG_OF_PERICENTER":322.6893,"MEAN_ANOMALY":37.3588,"EPHEMERIS_TYPE":0,"CLASSIFICATION_TYPE":"U","NORAD_CAT_ID":61869,"ELEMENT_SET_NO":999,"REV_AT_EPOCH":7380,"BSTAR":0.00061472876,"MEAN_MOTION_DOT":0.00016411,"MEAN_MOTION_DDOT":0},{"OBJECT_NAME":"STARLINK-34070","OBJECT_ID":"2025-095Z","EPOCH":"2026-03-09T08:00:38.871072","MEAN_MOTION":15.27579271,"ECCENTRICITY":0.00010315,"INCLINATION":42.9995,"RA_OF_ASC_NODE":178.1983,"ARG_OF_PERICENTER":242.774,"MEAN_ANOMALY":117.3007,"EPHEMERIS_TYPE":0,"CLASSIFICATION_TYPE":"U","NORAD_CAT_ID":63913,"ELEMENT_SET_NO":999,"REV_AT_EPOCH":4772,"BSTAR":0.0010984871,"MEAN_MOTION_DOT":0.00030089,"MEAN_MOTION_DDOT":0}]
